{
  "norad_id": 51640,
  "name": "ONEWEB-0446",
  "history": [
    {
      "epoch": "2026-03-28T22:03:17.774208Z",
      "apogee_km": 1223.1764015615763,
      "perigee_km": 1220.2686952983468,
      "latitude_deg": 8.793340648856675e-05,
      "longitude_deg": -104.89735598454568,
      "height_km": 1224.289320925122,
      "semi_major_axis_km": 7599.859548429961,
      "eccentricity": 0.0001913,
      "inclination_deg": 87.8803,
      "raan_deg": 52.2592,
      "arg_perigee_deg": 77.3805,
      "mean_anomaly_deg": 282.7537,
      "mean_motion_rev_day": 13.10371421
    }
  ]
}